[{"OBJECT_NAME":"IRIDIUM 177","OBJECT_ID":"2023-068T","EPOCH":"2026-03-09T21:08:04.695360","MEAN_MOTION":14.80207725,"ECCENTRICITY":0.00023207,"INCLINATION":86.2006,"RA_OF_ASC_NODE":15.9326,"ARG_OF_PERICENTER":75.4952,"MEAN_ANOMALY":284.6526,"EPHEMERIS_TYPE":0,"CLASSIFICATION_TYPE":"U","NORAD_CAT_ID":56727,"ELEMENT_SET_NO":999,"REV_AT_EPOCH":15167,"BSTAR":0.00019232012,"MEAN_MOTION_DOT":1.487e-5,"MEAN_MOTION_DDOT":0},{"OBJECT_NAME":"FENGYUN 1C DEB","OBJECT_ID":"1999-025BJD","EPOCH":"2026-03-05T19:26:04.100352","MEAN_MOTION":14.65186902,"ECCENTRICITY":0.00653541,"INCLINATION":98.3996,"RA_OF_ASC_NODE":71.3722,"ARG_OF_PERICENTER":267.1437,"MEAN_ANOMALY":92.2285,"EPHEMERIS_TYPE":0,"CLASSIFICATION_TYPE":"U","NORAD_CAT_ID":31175,"ELEMENT_SET_NO":999,"REV_AT_EPOCH":66853,"BSTAR":0.0058986669,"MEAN_MOTION_DOT":0.00032844,"MEAN_MOTION_DDOT":0}]
